STARLINK-4083           
1 52832U 22062C   26068.30851398 -.00001627  00000+0 -84194-4 0  9998
2 52832  53.2185  35.8295 0001273  96.9279 263.1858 15.08832291205721
DISKSAT A               
1 67222U 25305D   26068.54789610  .00013824  00000+0  90452-3 0  9996
2 67222  45.0023 251.6019 0004082 318.1929  41.8634 15.07741062 12266
